[{"OBJECT_NAME":"ARCSAT-1","OBJECT_ID":"2022-033E","EPOCH":"2026-03-09T04:59:54.555648","MEAN_MOTION":15.50898478,"ECCENTRICITY":0.00053088,"INCLINATION":97.2734,"RA_OF_ASC_NODE":159.2089,"ARG_OF_PERICENTER":185.4192,"MEAN_ANOMALY":174.7004,"EPHEMERIS_TYPE":0,"CLASSIFICATION_TYPE":"U","NORAD_CAT_ID":52161,"ELEMENT_SET_NO":999,"REV_AT_EPOCH":22019,"BSTAR":0.00026094098,"MEAN_MOTION_DOT":0.00015015,"MEAN_MOTION_DDOT":0},{"OBJECT_NAME":"SITRO-AIS 39","OBJECT_ID":"2024-199AV","EPOCH":"2026-03-09T21:45:33.461856","MEAN_MOTION":15.49706693,"ECCENTRICITY":0.00072488,"INCLINATION":97.3088,"RA_OF_ASC_NODE":302.8491,"ARG_OF_PERICENTER":301.349,"MEAN_ANOMALY":58.7052,"EPHEMERIS_TYPE":0,"CLASSIFICATION_TYPE":"U","NORAD_CAT_ID":61778,"ELEMENT_SET_NO":999,"REV_AT_EPOCH":11900,"BSTAR":0.00077550481,"MEAN_MOTION_DOT":0.00043134,"MEAN_MOTION_DDOT":0}]
